TDRS 3                  
1 19548U 88091B   18071.70813226 -.00000302  00000-0  00000-0 0  9995
2 19548  14.4413   5.2458 0038772 316.0174  41.6396  1.00277578 95133
SKYNET 4C               
1 20776U 90079A   18071.47209066  .00000123  00000-0  00000-0 0  9994
2 20776  13.9204  13.4597 0003353 342.1632  17.8310  1.00275226100654
TDRS 5                  
1 21639U 91054B   18071.78224712  .00000083  00000-0  00000+0 0  9990
2 21639  14.5232  18.6115 0025833 344.4008 281.2731  1.00276864 97437
TDRS 6                  
1 22314U 93003B   18072.10735193 -.00000296  00000-0  00000+0 0  9991
2 22314  14.0776  21.5921 0007890 318.5427 183.1397  1.00279766 92116
ASTRA 1D                
1 23331U 94070A   18071.84632637 -.00000274  00000-0  00000+0 0  9991
2 23331   7.9579  47.3982 0003960 302.6337  52.0621  1.00273919 85894
BRASILSAT B2            
1 23536U 95016A   18071.25856939 -.00000288  00000-0  00000+0 0  9992
2 23536   7.5864  49.3061 0002546 318.5557 187.0698  1.00273927 84041
AMSC 1                  
1 23553U 95019A   18071.91780702 -.00000121  00000-0  00000+0 0  9997
2 23553  10.4046  37.5651 0004588 338.0493  21.9796  1.00272136 83903
TDRS 7                  
1 23613U 95035B   18072.48341954 -.00000203  00000-0  00000+0 0  9998
2 23613  15.0514  12.2959 0032945   0.9716  56.6737  1.00273475 82897
INMARSAT 3-F1           
1 23839U 96020A   18072.11018449 -.00000004  00000-0  00000+0 0  9992
2 23839   4.4919  66.2665 0006175 289.1657 279.4071  1.00273716 80355
ASTRA 1F                
1 23842U 96021A   18071.92923524  .00000125  00000-0  00000-0 0  9998
2 23842   0.0478  41.6832 0003580 312.8249 194.7956  1.00272364 22087
MSAT M1                 
1 23846U 96022A   18070.95799142 -.00000093  00000-0  00000-0 0  9997
2 23846   8.1440  46.8731 0006149 309.5300  50.5048  1.00272380 80149
INMARSAT 3-F2           
1 24307U 96053A   18072.31677793 -.00000137  00000-0  00000+0 0  9991
2 24307   3.1741  76.3799 0007835 269.8709 283.1832  1.00271773 78762
AMC-1 (GE-1)            
1 24315U 96054A   18072.12346809  .00000055  00000-0  00000+0 0  9999
2 24315   2.1311  83.7013 0002707 284.8364  75.6989  1.00272847 78761
AFRICASAT-2 (MEASAT-2)  
1 24653U 96063B   18071.78310074 -.00000235  00000-0  00000+0 0  9991
2 24653   7.8841  47.8022 0008535 219.1301 333.3411  1.00272910 78084
INMARSAT 3-F3           
1 24674U 96070A   18072.22896564  .00000025  00000-0  00000+0 0  9991
2 24674   3.9576  70.4782 0005497 285.5870  75.2609  1.00271057 77706
AMC-2 (GE-2)            
1 24713U 97002A   18071.50854222 -.00000223  00000-0  00000+0 0  9997
2 24713   4.8300  64.5644 0005522 295.9472 267.8087  1.00273234 28050
INTELSAT 26 (IS-26)     
1 24732U 97007A   18071.71295591 -.00000019  00000-0  00000+0 0  9997
2 24732   7.8634  48.1511 0004461 334.6922 109.8998  1.00273927 77012
GALAXY 25 (G-25)        
1 24812U 97026A   18070.78807306 -.00000177  00000-0  00000-0 0  9992
2 24812   0.0506  99.0818 0003596 257.1535   3.7405  1.00272580 76104
INTELSAT 5 (IS-5)       
1 24916U 97046A   18071.28687301 -.00000155  00000-0  00000+0 0  9991
2 24916   4.0680  69.7846 0002939 278.7734  81.4705  1.00271368 75345
AMC-3 (GE-3)            
1 24936U 97050A   18072.45070001 -.00000273  00000-0  00000+0 0  9992
2 24936   0.9524  91.2013 0002586 272.5364 257.5309  1.00272786 75187
NSS-5                   
1 24957U 97053A   18071.81238699  .00000097  00000-0  00000+0 0  9999
2 24957   4.3542  67.9746 0003529 293.3810 151.9823  1.00270679 74979
ASTRA 1G                
1 25071U 97076A   18072.11507609  .00000094  00000-0  00000+0 0  9993
2 25071   2.8720  77.3575 0003140 278.3609 267.4829  1.00273112 74278
BRASILSAT B3            
1 25152U 98006A   18071.88865137 -.00000295  00000-0  00000+0 0  9997
2 25152   4.5338  66.9552 0002873 282.8682  77.3512  1.00272567 73666
INMARSAT 3-F5           
1 25153U 98006B   18072.21370757 -.00000299  00000-0  00000+0 0  9999
2 25153   3.1111  73.5467 0004471 290.8415 189.3408  1.00274276 73622
NSS-806                 
1 25239U 98014A   18071.78243808 -.00000292  00000-0  00000-0 0  9994
2 25239   0.0639 347.7985 0004621  12.8424  43.8890  1.00272096 17038
CHINASAT 5A (ZX 5A)     
1 25354U 98033A   18072.05601649 -.00000366  00000-0  00000+0 0  9996
2 25354   1.8109  85.6385 0004364 229.5302   1.1470  1.00275934 76978
THOR III                
1 25358U 98035A   18070.70205421 -.00000055  00000-0  00000+0 0  9995
2 25358   5.8743  57.5874 0002668 297.3464  62.7879  1.00272506 72433
INTELSAT 805 (IS-805)   
1 25371U 98037A   18072.49316753 -.00000044  00000-0  00000+0 0  9999
2 25371   0.5881  93.6822 0003189 267.2236 156.6869  1.00271944 72302
ASTRA 2A                
1 25462U 98050A   18072.06643137 -.00000373  00000-0  00000+0 0  9992
2 25462   0.0926 257.5195 0002305 107.0748 303.4473  1.00270670 71475
JCSAT-4A                
1 25630U 99006A   18072.45848407 -.00000214  00000-0  00000+0 0  9995
2 25630   2.8477  78.6828 0005531 265.6779 141.7208  1.00272578 69742
SKYNET 4E               
1 25639U 99009B   18072.06984703 -.00000036  00000-0  00000+0 0  9996
2 25639  10.3535  26.5738 0003753 328.4034 199.5485  1.00272287 69754
ASIASAT 3S              
1 25657U 99013A   18071.88101502 -.00000248  00000-0  00000-0 0  9994
2 25657   3.0560  77.0036 0003859 273.7073 282.9668  1.00272552 69558
NIMIQ 1                 
1 25740U 99027A   18072.10908854 -.00000212  00000-0  00000+0 0  9993
2 25740   0.0874 281.9694 0004589  75.8190 125.6393  1.00272261 68941
ASTRA 1H                
1 25785U 99033A   18072.51683795 -.00000286  00000-0  00000+0 0  9999
2 25785   4.3402  68.1222 0003101 283.3930 298.5163  1.00270546 68526
ABS-7                   
1 25894U 99046A   18071.98017187 -.00000376  00000-0  00000+0 0  9990
2 25894   0.0104 160.9055 0001942 198.2695 280.3574  1.00274933 66872
ABS-6                   
1 25924U 99053A   18072.08415833 -.00000133  00000-0  00000+0 0  9995
2 25924   0.0202 255.7305 0002294  99.6008   4.6467  1.00271584 67619
TELSTAR 12 (ORION 2)    
1 25949U 99059A   18071.73240413 -.00000076  00000-0  00000-0 0  9996
2 25949   1.5040  87.6982 0002966 271.0786 325.9921  1.00273230 67265
AMC-4 (GE-4)            
1 25954U 99060A   18070.90389286  .00000073  00000-0  00000-0 0  9990
2 25954   0.0151 127.1203 0002410 228.2700   4.5860  1.00273163 13457
GALAXY 11 (G-11)        
1 26038U 99071A   18071.85879253  .00000123  00000-0  00000-0 0  9995
2 26038   0.1010  91.4617 0000339 333.3901  99.6524  1.00272321 66845
SUPERBIRD-B2            
1 26095U 00012A   18071.94976477 -.00000107  00000-0  00000+0 0  9993
2 26095   0.9751  92.0293 0003097 260.8893 321.4812  1.00271725 66161
ASIASTAR                
1 26107U 00016A   18071.92275259 -.00000345  00000-0  00000-0 0  9994
2 26107   2.2310  81.2367 0004354 280.7698 245.6585  1.00270140 65662
EUTELSAT 80A            
1 26369U 00028A   18072.19651922 -.00000115  00000-0  00000+0 0  9996
2 26369   1.5785  85.1333 0006558 270.5338 233.1483  1.00272867 65210
TDRS 8                  
1 26388U 00034A   18071.42957728 -.00000238  00000-0  00000-0 0  9999
2 26388   7.9327  53.6189 0011102 276.3252  83.6560  1.00279752 64912
ECHOSTAR 6              
1 26402U 00038A   18071.49215885 -.00000160  00000-0  00000+0 0  9991
2 26402   4.6888  65.7421 0003612 296.2602 249.0335  1.00271968 64644
INTELSAT 9 (IS-9)       
1 26451U 00043A   18072.14130306 -.00000228  00000-0  00000+0 0  9993
2 26451   4.0559  69.9996 0003218 307.5517 174.5228  1.00271203 64581
BRASILSAT B4            
1 26469U 00046A   18071.01764180 -.00000183  00000-0  00000-0 0  9994
2 26469   2.2127  83.4935 0002945 278.3305  82.1470  1.00273462 64695
NILESAT 102             
1 26470U 00046B   18071.68868796 -.00000072  00000-0  00000-0 0  9994
2 26470   2.2413  82.4422 0005273 268.9183  59.8473  1.00273515 14925
ASTRA 2B                
1 26494U 00054A   18071.46924361 -.00000167  00000-0  00000-0 0  9991
2 26494   2.7613  78.0343 0006073 292.3825 308.9466  1.00271841 16612
AMC-7 (GE-7)            
1 26495U 00054B   18070.90413406  .00000074  00000-0  00000-0 0  9999
2 26495   0.0257  87.8923 0002391 217.8613  54.2029  1.00270781 63964
NSS-11 (AAP-1)          
1 26554U 00059A   18072.43171000  .00000011  00000-0  00000+0 0  9991
2 26554   0.0412 304.0308 0002806  66.5191 131.8510  1.00271899 63918
N-SAT-110 (JCSAT-110)   
1 26559U 00060A   18071.97488507 -.00000365  00000-0  00000-0 0  9993
2 26559   0.0264 107.5036 0001656 346.2321 177.8238  1.00270402 11017
AMC-6 (GE-6)            
1 26580U 00067A   18071.49840986 -.00000230  00000-0  00000+0 0  9994
2 26580   0.0335 293.6516 0002644  84.9046 247.9298  1.00271110 63714
INTELSAT 12 (IS-12)     
1 26590U 00068A   18071.83014667  .00000123  00000-0  00000+0 0  9993
2 26590   1.0589  91.2915 0002631 263.6170 159.3263  1.00273213 63536
INTELSAT 1R (IS-1R)     
1 26608U 00072A   18071.87163990 -.00000151  00000-0  00000-0 0  9999
2 26608   0.8708  92.6893 0002342 250.4738 298.1751  1.00272478 11055
ANIK F1                 
1 26624U 00076A   18070.82754197 -.00000088  00000-0  00000-0 0  9999
2 26624   0.0158 156.0707 0001089 249.5701 314.3465  1.00272698 12888
ASTRA 2D                
1 26638U 00081A   18071.55345438  .00000035  00000-0  00000-0 0  9996
2 26638   4.1666  68.8069 0002323 270.8065  89.4400  1.00273024 22643
AMC-8 (GE-8)            
1 26639U 00081B   18071.74702029  .00000090  00000-0  00000-0 0  9992
2 26639   0.0295 293.8389 0002374  20.6144 345.7903  1.00273950 63073
SKYNET 4F               
1 26695U 01005B   18072.14379812 -.00000255  00000-0  00000+0 0  9999
2 26695   9.1926  34.7745 0002737 311.7088 202.0290  1.00274416 62619
EUTELSAT 33C            
1 26719U 01011A   18072.00440472  .00000142  00000-0  00000+0 0  9993
2 26719   0.1233  71.1817 0006149 303.0618 190.9878  1.00271809 62314
